#dV2023  1  8 22  0  0.00000000    1682       CTS   FIT  GFZ
## 2244  79200.00000000    30.00000000 59952 0.9166666666667
+    1   L65  0  0  0  0  0  0  0  0  0  0  0  0  0  0  0  0
+          0  0  0  0  0  0  0  0  0  0  0  0  0  0  0  0  0
+          0  0  0  0  0  0  0  0  0  0  0  0  0  0  0  0  0
+          0  0  0  0  0  0  0  0  0  0  0  0  0  0  0  0  0
+          0  0  0  0  0  0  0  0  0  0  0  0  0  0  0  0  0
++         0  0  0  0  0  0  0  0  0  0  0  0  0  0  0  0  0
++         0  0  0  0  0  0  0  0  0  0  0  0  0  0  0  0  0
++         0  0  0  0  0  0  0  0  0  0  0  0  0  0  0  0  0
++         0  0  0  0  0  0  0  0  0  0  0  0  0  0  0  0  0
++         0  0  0  0  0  0  0  0  0  0  0  0  0  0  0  0  0
%c L  cc GPS ccc cccc cccc cccc cccc ccccc ccccc ccccc ccccc
%c cc cc ccc ccc cccc cccc cccc cccc ccccc ccccc ccccc ccccc
%f  0.0000000  0.000000000  0.00000000000  0.000000000000000
%f  0.0000000  0.000000000  0.00000000000  0.000000000000000
%i    0    0    0    0      0      0      0      0         0
%i    0    0    0    0      0      0      0      0         0
/* CCCCCCCCCCCCCCCCCCCCCCCCCCCCCCCCCCCCCCCCCCCCCCCCCCCCCCCCCCCCCCCCCCCCCCCCCCCCC
/* C                             GFZ RSO-ORBIT                                 C
/* C DOI: https://doi.org/10.5880/GFZ_ORBIT/RSO/L65_G_v02                      C
/* C                                                                           C
/* C DORIS        RMS: not applicable                                          C
/* C GNSS-E Code  RMS: not applicable                                          C
/* C GNSS-E Phase RMS: not applicable                                          C
/* C GNSS-G Code  RMS:  49.669 [cm]   Obs.acc.:     14282 Obs.eli.:      1181  C
/* C GNSS-G Phase RMS:   4.435 [mm]   Obs.acc.:     14282 Obs.eli.:      1181  C
/* C SLR          RMS:   3.346 [cm]   Obs.acc.:        87 Obs.eli.:         0  C
/* C                                                                           C
/* CCCCCCCCCCCCCCCCCCCCCCCCCCCCCCCCCCCCCCCCCCCCCCCCCCCCCCCCCCCCCCCCCCCCCCCCCCCCC
*  2023  1  8 23 16 30.00000000
PL65    -46.596955   2677.130588   6327.704388  25189.719670
VL65  -2721.594941  69999.833070 -29575.301279 999999.999999
*  2023  1  8 23 17  0.00000000
PL65    -54.277498   2885.641624   6235.502031  25190.186265
VL65  -2399.032646  68994.574003 -31887.317390 999999.999999
*  2023  1  8 23 17 30.00000000
PL65    -60.993086   3091.020887   6136.415461  25190.653163
VL65  -2078.405792  67912.172110 -34164.356808 999999.999999
*  2023  1  8 23 18  0.00000000
PL65    -66.750555   3293.038684   6030.553371  25191.120214
VL65  -1760.400638  66753.799947 -36403.916923 999999.999999
*  2023  1  8 23 18 30.00000000
PL65    -71.558790   3491.468971   5918.031905  25191.586992
VL65  -1445.695212  65520.715852 -38603.533292 999999.999999
*  2023  1  8 23 19  0.00000000
PL65    -75.428695   3686.089607   5798.974539  25192.053982
VL65  -1134.958008  64214.262742 -40760.783575 999999.999999
*  2023  1  8 23 19 30.00000000
PL65    -78.373165   3876.682601   5673.511949  25192.521266
VL65   -828.847280  62835.865028 -42873.290060 999999.999999
*  2023  1  8 23 20  0.00000000
PL65    -80.407053   4063.034355   5541.781877  25192.988293
VL65   -528.010069  61387.027228 -44938.719609 999999.999999
*  2023  1  8 23 20 30.00000000
PL65    -81.547133   4244.935907   5403.928997  25193.455094
VL65   -233.080509  59869.335263 -46954.785408 999999.999999
*  2023  1  8 23 21  0.00000000
PL65    -81.812064   4422.183176   5260.104766  25193.922057
VL65     55.320927  58284.456144 -48919.251189 999999.999999
*  2023  1  8 23 21 30.00000000
PL65    -81.222343   4594.577201   5110.467274  25194.388791
VL65    336.587417  56634.136312 -50829.934692 999999.999999
*  2023  1  8 23 22  0.00000000
PL65    -79.800267   4761.924376   4955.181067  25194.855247
VL65    610.127461  54920.200367 -52684.711562 999999.999999
*  2023  1  8 23 22 30.00000000
PL65    -77.569879   4924.036684   4794.416975  25195.321413
VL65    875.367414  53144.547673 -54481.520224 999999.999999
*  2023  1  8 23 23  0.00000000
PL65    -74.556919   5080.731911   4628.351912  25195.787707
VL65   1131.751584  51309.146936 -56218.364233 999999.999999
*  2023  1  8 23 23 30.00000000
PL65    -70.788765   5231.833850   4457.168687  25196.254331
VL65   1378.741533  49416.032749 -57893.312602 999999.999999
*  2023  1  8 23 24  0.00000000
PL65    -66.294383   5377.172490   4281.055800  25196.720916
VL65   1615.818331  47467.302408 -59504.499871 999999.999999
*  2023  1  8 23 24 30.00000000
PL65    -61.104267   5516.584205   4100.207254  25197.187176
VL65   1842.483605  45465.114689 -61050.122571 999999.999999
*  2023  1  8 23 25  0.00000000
PL65    -55.250373   5649.911944   3914.822373  25197.653997
VL65   2058.258000  43411.695334 -62528.439305 999999.999999
*  2023  1  8 23 25 30.00000000
PL65    -48.766069   5777.005438   3725.105597  25198.120931
VL65   2262.682662  41309.339048 -63937.779739 999999.999999
*  2023  1  8 23 26  0.00000000
PL65    -41.686064   5897.721397   3531.266266  25198.587567
VL65   2455.321529  39160.403334 -65276.551393 999999.999999
*  2023  1  8 23 26 30.00000000
PL65    -34.046339   6011.923692   3333.518375  25199.054220
VL65   2635.761728  36967.303917 -66543.240038 999999.999999
*  2023  1  8 23 27  0.00000000
PL65    -25.884082   6119.483530   3132.080344  25199.521334
VL65   2803.614306  34732.515738 -67736.413001 999999.999999
*  2023  1  8 23 27 30.00000000
PL65    -17.237605   6220.279623   2927.174757  25199.988301
VL65   2958.516137  32458.565780 -68854.728825 999999.999999
*  2023  1  8 23 28  0.00000000
PL65     -8.146273   6314.198325   2719.028084  25200.454751
VL65   3100.131318  30148.017661 -69896.934091 999999.999999
*  2023  1  8 23 28 30.00000000
PL65      1.349585   6401.133731   2507.870442  25200.921745
VL65   3228.149743  27803.472309 -70861.852520 999999.999999
*  2023  1  8 23 29  0.00000000
PL65     11.208743   6480.987807   2293.935354  25201.389252
VL65   3342.286402  25427.576276 -71748.389099 999999.999999
*  2023  1  8 23 29 30.00000000
PL65     21.389162   6553.670525   2077.459497  25201.856045
VL65   3442.283009  23023.017792 -72555.539064 999999.999999
*  2023  1  8 23 30  0.00000000
PL65     31.848070   6619.099972   1858.682423  25202.322484
VL65   3527.909249  20592.518842 -73282.388962 999999.999999
*  2023  1  8 23 30 30.00000000
PL65     42.542045   6677.202449   1637.846290  25202.789548
VL65   3598.963262  18138.831925 -73928.114807 999999.999999
*  2023  1  8 23 31  0.00000000
PL65     53.427103   6727.912556   1415.195595  25203.257005
VL65   3655.271602  15664.738272 -74491.983167 999999.999999
*  2023  1  8 23 31 30.00000000
PL65     64.458783   6771.173278   1190.976893  25203.723897
VL65   3696.689118  13173.044354 -74973.352679 999999.999999
*  2023  1  8 23 32  0.00000000
PL65     75.592229   6806.936050    965.438529  25204.190593
VL65   3723.099231  10666.578649 -75371.674611 999999.999999
*  2023  1  8 23 32 30.00000000
PL65     86.782282   6835.160825    738.830351  25204.657223
VL65   3734.414574   8148.188997 -75686.493886 999999.999999
*  2023  1  8 23 33  0.00000000
PL65     97.983563   6855.816123    511.403432  25205.124332
VL65   3730.577759   5620.739212 -75917.450732 999999.999999
*  2023  1  8 23 33 30.00000000
PL65    109.150568   6868.879075    283.409776  25205.591745
VL65   3711.561677   3087.104819 -76064.281802 999999.999999
*  2023  1  8 23 34  0.00000000
PL65    120.237756   6874.335450     55.102036  25206.058843
VL65   3677.369181    550.168658 -76126.820698 999999.999999
*  2023  1  8 23 34 30.00000000
PL65    131.199638   6872.179671   -173.266783  25206.525802
VL65   3628.032562  -1987.183469 -76104.997765 999999.999999
*  2023  1  8 23 35  0.00000000
PL65    141.990868   6862.414819   -401.443612  25206.992697
VL65   3563.613224  -4522.066274 -75998.839392 999999.999999
*  2023  1  8 23 35 30.00000000
PL65    152.566325   6845.052625   -629.175603  25207.459521
VL65   3484.201556  -7051.597925 -75808.467952 999999.999999
*  2023  1  8 23 36  0.00000000
PL65    162.881203   6820.113458   -856.210422  25207.926471
VL65   3389.916716  -9572.903604 -75534.101902 999999.999999
*  2023  1  8 23 36 30.00000000
PL65    172.891098   6787.626294  -1082.296531  25208.392774
VL65   3280.906318 -12083.119247 -75176.055393 999999.999999
*  2023  1  8 23 37  0.00000000
PL65    182.552090   6747.628683  -1307.183480  25208.859380
VL65   3157.346197 -14579.395223 -74734.737765 999999.999999
*  2023  1  8 23 37 30.00000000
PL65    191.820829   6700.166694  -1530.622187  25209.326779
VL65   3019.440389 -17058.900079 -74210.652748 999999.999999
*  2023  1  8 23 38  0.00000000
PL65    200.654618   6645.294864  -1752.365223  25209.793221
VL65   2867.421004 -19518.823709 -73604.397265 999999.999999
*  2023  1  8 23 38 30.00000000
PL65    209.011500   6583.076120  -1972.167087  25210.259831
VL65   2701.547717 -21956.380025 -72916.660775 999999.999999
*  2023  1  8 23 39  0.00000000
PL65    216.850337   6513.581711  -2189.784485  25210.726551
VL65   2522.107549 -24368.810454 -72148.224883 999999.999999
*  2023  1  8 23 39 30.00000000
PL65    224.130892   6436.891112  -2404.976606  25211.193381
VL65   2329.414636 -26753.387564 -71299.962077 999999.999999
*  2023  1  8 23 40  0.00000000
PL65    230.813911   6353.091933  -2617.505390  25211.660682
VL65   2123.809417 -29107.418111 -70372.834630 999999.999999
*  2023  1  8 23 40 30.00000000
PL65    236.861201   6262.279807  -2827.135797  25212.128596
VL65   1905.657903 -31428.246580 -69367.893711 999999.999999
*  2023  1  8 23 41  0.00000000
PL65    242.235703   6164.558272  -3033.636074  25212.595771
VL65   1675.351229 -33713.258775 -68286.277714 999999.999999
*  2023  1  8 23 41 30.00000000
PL65    246.901568   6060.038642  -3236.778010  25213.062891
VL65   1433.305131 -35959.884945 -67129.210370 999999.999999
EOF
